<?xml version="1.0" encoding="UTF-8"?>
<gpx version="1.1" creator="GPSLogger">
  <trk>
    <name>2026-07-05 trip</name>
    <trkseg>
      <trkpt lat="51.5151" lon="-0.1249"><time>2026-07-05T09:00:00Z</time></trkpt>
      <trkpt lat="51.5161" lon="-0.1259"><time>2026-07-05T09:01:00Z</time></trkpt>
      <trkpt lat="51.5175" lon="-0.1272"><time>2026-07-05T09:02:00Z</time></trkpt>
      <trkpt lat="51.5192" lon="-0.1288"><time>2026-07-05T09:03:00Z</time></trkpt>
      <trkpt lat="51.5210" lon="-0.1301"><time>2026-07-05T09:04:00Z</time></trkpt>
      <trkpt lat="51.5225" lon="-0.1320"><time>2026-07-05T09:05:00Z</time></trkpt>
      <trkpt lat="51.5221" lon="-0.1352"><time>2026-07-05T09:06:00Z</time></trkpt>
      <trkpt lat="51.5215" lon="-0.1385"><time>2026-07-05T09:07:00Z</time></trkpt>
      <trkpt lat="51.5201" lon="-0.1410"><time>2026-07-05T09:08:00Z</time></trkpt>
      <trkpt lat="51.5188" lon="-0.1425"><time>2026-07-05T09:09:00Z</time></trkpt>
      <trkpt lat="51.5170" lon="-0.1432"><time>2026-07-05T09:10:00Z</time></trkpt>
      <trkpt lat="51.5155" lon="-0.1436"><time>2026-07-05T09:11:00Z</time></trkpt>
    </trkseg>
  </trk>
</gpx>
